STARLINK-4497           
1 53411U 22097Z   22245.58334491  .00076445  00000+0  54489-3 0  9994
2 53411  53.2191 132.3047 0001092  97.6254 329.4053 15.73168195  1308
STARLINK-4496           
1 53412U 22097AA  22245.58334491 -.00041582  00000+0 -29310-3 0  9996
2 53412  53.2190 132.2986 0001059  94.2841 335.6482 15.73218145  1303
STARLINK-4500           
1 53413U 22097AB  22245.58334491  .00048577  00000+0  34901-3 0  9998
2 53413  53.2189 132.3000 0000881  87.5528 341.2574 15.73167734  1301
STARLINK-4304           
1 53414U 22097AC  22245.58334491 -.00002198  00000+0 -11267-4 0  9991
2 53414  53.2187 132.2961 0000792 100.2578 330.3239 15.73173187  1300
STARLINK-4479           
1 53415U 22097AD  22245.58334491 -.00026506  00000+0 -18495-3 0  9990
2 53415  53.2192 132.2960 0000982  76.7851 354.3838 15.73211760  1309
STARLINK-4480           
1 53416U 22097AE  22245.58334491 -.00063640  00000+0 -45224-3 0  9991
2 53416  53.2198 132.2890 0001139  86.0229 346.9040 15.73211586  1304
STARLINK-4484           
1 53417U 22097AF  22245.58334491  .00039977  00000+0  28829-3 0  9998
2 53417  53.2189 132.2942 0001154  86.1348 345.6479 15.73168044  1305
STARLINK-4481           
1 53418U 22097AG  22245.58334491  .00073550  00000+0  52458-3 0  9999
2 53418  53.2191 132.1841 0001354  98.4561  26.4636 15.73169057  1305
STARLINK-4476           
1 53419U 22097AH  22245.58334491 -.00027104  00000+0 -18945-3 0  9999
2 53419  53.2187 132.2920 0001160  81.5991 350.8088 15.73184804  1307
STARLINK-4552           
1 53420U 22097AJ  22245.58334491 -.00030265  00000+0 -21197-3 0  9996
2 53420  53.2191 132.2877 0001165  98.8758 336.4859 15.73203805  1301
STARLINK-4545           
1 53421U 22097AK  22245.58334491  .00039073  00000+0  28204-3 0  9997
2 53421  53.2188 132.2900 0000925  93.9729 339.5650 15.73156967  1301
STARLINK-4546           
1 53422U 22097AL  22245.58334491  .00046819  00000+0  33635-3 0  9998
2 53422  53.2189 132.2843 0001110  87.5300 348.9591 15.73186004  1303
STARLINK-4539           
1 53423U 22097AM  22245.58334491  .00075132  00000+0  53591-3 0  9992
2 53423  53.2193 132.2906 0001083  87.6690 346.4544 15.73158540  1306
STARLINK-4532           
1 53424U 22097AN  22245.58334491 -.00034334  00000+0 -24088-3 0  9993
2 53424  53.2189 132.2823 0001094  98.4533 339.2102 15.73232437  1306
STARLINK-4531           
1 53425U 22097AP  22245.58334491  .00074628  00000+0  53220-3 0  9992
2 53425  53.2190 132.2854 0000799  95.2703 340.6479 15.73166537  1308
STARLINK-4558           
1 53426U 22097AQ  22245.58334491  .00051968  00000+0  37246-3 0  9995
2 53426  53.2189 132.2811 0001092  89.2841 349.0513 15.73196430  1300
STARLINK-4541           
1 53427U 22097AR  22245.58334491 -.00040230  00000+0 -28379-3 0  9995
2 53427  53.2197 132.2825 0001270  92.9208 344.2767 15.73183803  1309
STARLINK-4540           
1 53428U 22097AS  22245.58334491 -.00049481  00000+0 -35025-3 0  9999
2 53428  53.2187 132.2761 0001009  87.8869 352.2466 15.73198114  1300
STARLINK-4543           
1 53429U 22097AT  22245.58334491  .00036560  00000+0  26411-3 0  9991
2 53429  53.2188 132.2773 0001069 107.4146 332.0671 15.73170140  1301
STARLINK-4538           
1 53430U 22097AU  22245.58334491  .00010541  00000+0  79525-4 0  9999
2 53430  53.2197 132.2768 0001158  90.9420 349.7778 15.73169355  1306
STARLINK-4548           
1 53431U 22097AV  22245.58334491 -.00002369  00000+0 -12474-4 0  9991
2 53431  53.2189 132.2796 0001021  82.3985 356.4878 15.73194423  1309
STARLINK-4557           
1 53432U 22097AW  22245.58334491 -.00026136  00000+0 -18244-3 0  9990
2 53432  53.2194 132.2741 0001282  89.1407 353.3837 15.73192421  1306
STARLINK-4549           
1 53433U 22097AX  22245.58334491 -.00030964  00000+0 -21716-3 0  9993
2 53433  53.2188 132.2742 0001132  85.9408 355.4101 15.73184972  1309
STARLINK-4498           
1 53434U 22097AY  22245.58334491 -.00029476  00000+0 -20633-3 0  9997
2 53434  53.2188 132.2700 0001175  88.0296 355.6835 15.73200940  1300
STARLINK-4542           
1 53435U 22097AZ  22245.58334491  .00076395  00000+0  54440-3 0  9991
2 53435  53.2194 132.2747 0000871  92.1871 349.7259 15.73174208  1307
STARLINK-4527           
1 53436U 22097BA  22245.58334491  .00077129  00000+0  54971-3 0  9997
2 53436  53.2188 132.2686 0001193  83.4552   0.7928 15.73166904  1301
STARLINK-4526           
1 53438U 22097BC  22245.58334491  .00052046  00000+0  37281-3 0  9995
2 53438  53.2189 132.2679 0001136  93.8943 350.9835 15.73208913  1306
STARLINK-4519           
1 53439U 22097BD  22245.58334491 -.00016891  00000+0 -11619-3 0  9993
2 53439  53.2191 132.2663 0001073  96.2581 349.2487 15.73197424  1306
2022-098A               
1 53444U 22098A   22245.46959553  .00002793  00000+0  18118-3 0  9994
2 53444  97.5316 341.3803 0012004 168.7756 253.6105 15.08841407  3511
2022-098B               
1 53445U 22098B   22245.46014184  .00002538  00000+0  16227-3 0  9993
2 53445  97.5343 341.4033 0009874 178.3208 246.0039 15.09478148  3496
2022-098C               
1 53446U 22098C   22245.46792887  .00002741  00000+0  17737-3 0  9990
2 53446  97.5363 341.3975 0012222 172.2520 250.4852 15.08953535  3493
2022-098D               
1 53447U 22098D   22245.46588141  .00002697  00000+0  17393-3 0  9995
2 53447  97.5275 341.3718 0011437 173.7657 249.9310 15.09098205  3492
2022-098E               
1 53448U 22098E   22245.46323125  .00002619  00000+0  16816-3 0  9998
2 53448  97.5342 341.3993 0011934 179.5178 245.0952 15.09280597  3493
2022-098F               
1 53449U 22098F   22245.46187679  .00002590  00000+0  16596-3 0  9994
2 53449  97.5294 341.3830 0011380 180.6688 243.9763 15.09369346  3491
2022-098G               
1 53450U 22098G   22245.45889097  .00002486  00000+0  15867-3 0  9992
2 53450  97.5338 341.4044 0008947 178.4895 246.7411 15.09569670  3493
2022-098H               
1 53451U 22098H   22245.45761667  .00002460  00000+0  15672-3 0  9991
2 53451  97.5385 341.4205 0009486 182.6767 242.1678 15.09647527  3492
2022-098J               
1 53452U 22098J   22245.45634343  .00002447  00000+0  15547-3 0  9998
2 53452  97.5290 341.3916 0009391 185.0600 240.6369 15.09741354  3497
2022-098K               
1 53453U 22098K   22245.46706052  .00002431  00000+0  15414-3 0  9993
2 53453  97.5335 341.4205 0010101 188.3290 302.4315 15.09823028  3499
2022-098L               
1 53454U 22098L   22245.46417760  .00003832  00000+0  23911-3 0  9996
2 53454  97.5285 341.4078 0011755 195.8346 295.4823 15.10050153  3491
2022-098M               
1 53455U 22098M   22245.54136574  .00003789  00000+0  23632-3 0  9998
2 53455  97.5302 341.4915 0011747 196.3998 355.7571 15.10068253  3504
2022-098N               
1 53456U 22098N   22245.46328664  .00003692  00000+0  23015-3 0  9991
2 53456  97.5276 341.4053 0011446 196.6191 294.6441 15.10106302  3495
2022-098P               
1 53457U 22098P   22245.46224572  .00003761  00000+0  23337-3 0  9999
2 53457  97.5281 341.4106 0010691 199.4454 299.9985 15.10272925  3491
2022-098Q               
1 53458U 22098Q   22245.46137499  .00003392  00000+0  21122-3 0  9991
2 53458  97.5325 341.4228 0011379 197.7009 292.9684 15.10203585  3492
2022-098R               
1 53459U 22098R   22245.46007067  .00003722  00000+0  23070-3 0  9990
2 53459  97.5299 341.4181 0010452 201.0789 290.7752 15.10322801  3491
HSU-SAT1                
1 53462U 98067UB  22245.46809706  .00024513  00000+0  40744-3 0  9991
2 53462  51.6412 313.5228 0005807 214.7306 145.3305 15.51910761  3288
FUTABA                  
1 53463U 98067UC  22245.46634085  .00029010  00000+0  47687-3 0  9998
2 53463  51.6410 313.5107 0005708 215.7485 144.3123 15.52124329  3287
TUMNANOSAT              
1 53464U 98067UD  22245.40017079  .00025867  00000+0  42314-3 0  9999
2 53464  51.6410 313.8193 0005660 217.6944 142.3650 15.52325941  3279
STARLINK-4415           
1 53465U 22099A   22245.58334491 -.01228085  00000+0 -17573-1 0  9998
2 53465  97.6555   4.7029 0002136  50.0784 108.6640 15.59088241  1302
STARLINK-4398           
1 53466U 22099B   22245.58334491 -.01205769  00000+0 -19855-1 0  9998
2 53466  97.6555   4.7029 0001679  75.8939  15.2218 15.55289759  1308
STARLINK-4394           
1 53467U 22099C   22245.58334491 -.01205490  00000+0 -19845-1 0  9999
2 53467  97.6555   4.7024 0001641  84.9630   6.8967 15.55296795  1307
STARLINK-4400           
1 53468U 22099D   22245.58334491 -.01205852  00000+0 -19846-1 0  9993
2 53468  97.6555   4.7016 0001676  76.9879  15.6154 15.55304141  1304
STARLINK-4399           
1 53469U 22099E   22245.58334491 -.01206000  00000+0 -19838-1 0  9991
2 53469  97.6555   4.7014 0001696  74.2347  19.8561 15.55318568  1302
STARLINK-4393           
1 53470U 22099F   22245.58334491 -.01206119  00000+0 -19845-1 0  9992
2 53470  97.6555   4.7010 0001753  67.1242  26.2229 15.55311440  1304
STARLINK-4316           
1 53471U 22099G   22245.58334491 -.01213509  00000+0 -19958-1 0  9999
2 53471  97.6556   4.6998 0002141  44.8568  50.7189 15.55337968  1305
STARLINK-4447           
1 53472U 22099H   22245.58334491 -.01206075  00000+0 -19834-1 0  9993
2 53472  97.6555   4.7006 0001709  72.6049  22.2294 15.55325783  1301
STARLINK-4383           
1 53473U 22099J   22245.58334491 -.01206126  00000+0 -19814-1 0  9999
2 53473  97.6555   4.6991 0001693  76.1510  21.6569 15.55354528  1305
STARLINK-4445           
1 53474U 22099K   22245.58334491 -.01206236  00000+0 -19795-1 0  9990
2 53474  97.6555   4.6964 0001687  78.6397  22.1406 15.55383290  1303
STARLINK-4389           
1 53475U 22099L   22245.58334491 -.01206078  00000+0 -19808-1 0  9990
2 53475  97.6555   4.6984 0001676  79.6548  18.8963 15.55361683  1305
STARLINK-4378           
1 53476U 22099M   22245.58334491 -.01205748  00000+0 -19818-1 0  9995
2 53476  97.6555   4.6993 0001652  85.0119  11.3094 15.55339998  1302
